NORAD_CAT_ID,OBJECT_NAME,OBJECT_TYPE,EPOCH,MEAN_MOTION,ECCENTRICITY,INCLINATION,RA_OF_ASC_NODE,ARG_OF_PERICENTER,MEAN_ANOMALY,BSTAR,MEAN_MOTION_DOT,MEAN_MOTION_DDOT,TLE_LINE0,TLE_LINE1,TLE_LINE2,SEMIMAJOR_AXIS,PERIOD,APOGEE,PERIGEE,DECAYED
54209.0,STARLINK-5259,PAYLOAD,2023-02-19 09:43:38,15.08819444,0.0001437,53.213,305.9878,77.3794,282.7359,0.0003359,5.059e-05,0.0,0 STARLINK-5259,1 54209U 22141BE  23050.40530694  .00005059  00000-0  33590-3 0  9993,2 54209  53.2130 305.9878 0001437  77.3794 282.7359 15.08819444 17927,6917.943,95.439,540.802,538.814,0.0
54209.0,STARLINK-5259,PAYLOAD,2023-02-20 01:37:30,15.08773943,0.0001588,53.2159,303.0178,85.7994,274.318,0.0010145,0.00015866,0.0,0 STARLINK-5259,1 54209U 22141BE  23051.06771946  .00015866  00000-0  10145-2 0  9990,2 54209  53.2159 303.0178 0001588  85.7994 274.3180 15.08773943 18251,6918.082,95.442,541.046,538.849,0.0
54209.0,STARLINK-5259,PAYLOAD,2023-02-20 09:34:25,15.08841093,0.0001145,53.2135,301.5273,85.8829,274.2294,3.1133e-05,2.08e-06,0.0,0 STARLINK-5259,1 54209U 22141BE  23051.39890998  .00000208  00000-0  31133-4 0  9991,2 54209  53.2135 301.5273 0001145  85.8829 274.2294 15.08841093 18304,6917.877,95.437,540.534,538.95,0.0
54209.0,STARLINK-5259,PAYLOAD,2023-02-21 01:28:16,15.08850773,9.43e-05,53.2162,298.5564,65.6412,294.4679,2.6254e-05,1.3e-06,0.0,0 STARLINK-5259,1 54209U 22141BE  23052.06130255  .00000130  00000-0  26254-4 0  9991,2 54209  53.2162 298.5564 0000943  65.6412 294.4679 15.08850773 18408,6917.847,95.437,540.365,539.06,0.0
54209.0,STARLINK-5259,PAYLOAD,2023-02-21 09:25:12,15.08853699,0.0001342,53.2164,297.0671,77.5607,282.5536,-7.4012e-05,-1.466e-05,0.0,0 STARLINK-5259,1 54209U 22141BE  23052.39250107 -.00001466  00000-0 -74012-4 0  9996,2 54209  53.2164 297.0671 0001342  77.5607 282.5536 15.08853699 18225,6917.839,95.437,540.632,538.775,0.0
54209.0,STARLINK-5259,PAYLOAD,2023-02-21 22:08:17,15.08846696,0.0001229,53.2157,294.6879,87.4654,272.6479,1.1741e-05,-1.01e-06,0.0,0 STARLINK-5259,1 54209U 22141BE  23052.92242107 -.00000101  00000-0  11741-4 0  9990,2 54209  53.2157 294.6879 0001229  87.4654 272.6479 15.08846696 18300,6917.86,95.437,540.575,538.875,0.0
54209.0,STARLINK-5259,PAYLOAD,2023-02-22 01:19:02,15.0885422,0.0001259,53.2164,294.0934,87.4853,272.6283,3.0469e-05,1.97e-06,0.0,0 STARLINK-5259,1 54209U 22141BE  23053.05489516  .00000197  00000-0  30469-4 0  9994,2 54209  53.2164 294.0934 0001259  87.4853 272.6283 15.08854220 18325,6917.837,95.437,540.573,538.831,0.0
54209.0,STARLINK-5259,PAYLOAD,2023-02-22 21:59:05,15.08832482,0.0001027,53.2163,290.2278,100.7109,259.3999,-0.00011851,-2.173e-05,0.0,0 STARLINK-5259,1 54209U 22141BE  23053.91603491 -.00002173  00000-0 -11851-3 0  9990,2 54209  53.2163 290.2278 0001027 100.7109 259.3999 15.08832482 18455,6917.903,95.438,540.479,539.058,0.0
54209.0,STARLINK-5259,PAYLOAD,2023-02-22 23:34:28,15.08832505,0.0001134,53.2165,289.9312,95.8012,264.311,-0.00010341,-1.933e-05,0.0,0 STARLINK-5259,1 54209U 22141BE  23053.98227511 -.00001933  00000-0 -10341-3 0  9998,2 54209  53.2165 289.9312 0001134  95.8012 264.3110 15.08832505 18690,6917.903,95.438,540.553,538.984,0.0
54209.0,STARLINK-5259,PAYLOAD,2023-02-23 21:49:50,15.08849964,8.62e-05,53.2165,285.7678,91.9556,268.1535,0.00011164,1.49e-05,0.0,0 STARLINK-5259,1 54209U 22141BE  23054.90961389  .00001490  00000-0  11164-3 0  9999,2 54209  53.2165 285.7678 0000862  91.9556 268.1535 15.08849964 18832,6917.85,95.437,540.311,539.119,0.0
54209.0,STARLINK-5259,PAYLOAD,2023-02-24 02:35:59,15.08864632,0.000112,53.2173,284.876,91.0284,269.0837,0.0001053,1.389e-05,0.0,0 STARLINK-5259,1 54209U 22141BE  23055.10832383  .00001389  00000-0  10530-3 0  9996,2 54209  53.2173 284.8760 0001120  91.0284 269.0837 15.08864632 18867,6917.805,95.436,540.445,538.895,0.0
54209.0,STARLINK-5259,PAYLOAD,2023-02-24 16:54:29,15.08831858,0.0001215,53.2179,282.1991,103.9517,256.1611,-7.123e-05,-1.421e-05,0.0,0 STARLINK-5259,1 54209U 22141BE  23055.70451273 -.00001421  00000-0 -71230-4 0  9991,2 54209  53.2179 282.1991 0001215 103.9517 256.1611 15.08831858 18958,6917.905,95.438,540.611,538.93,0.0
54209.0,STARLINK-5259,PAYLOAD,2023-02-24 21:40:39,15.08832249,0.0001108,53.2182,281.3088,87.3353,272.7766,-3.1645e-05,-7.91e-06,0.0,0 STARLINK-5259,1 54209U 22141BE  23055.90323195 -.00000791  00000-0 -31645-4 0  9999,2 54209  53.2182 281.3088 0001108  87.3353 272.7766 15.08832249 18752,6917.904,95.438,540.536,539.003,0.0
54209.0,STARLINK-5259,PAYLOAD,2023-02-25 02:26:48,15.08835561,0.0001119,53.2186,280.4157,88.9039,271.2081,-2.3346e-05,-6.59e-06,0.0,0 STARLINK-5259,1 54209U 22141BE  23056.10194998 -.00000659  00000-0 -23346-4 0  9991,2 54209  53.2186 280.4157 0001119  88.9039 271.2081 15.08835561 19017,6917.894,95.438,540.533,538.985,0.0
54209.0,STARLINK-5259,PAYLOAD,2023-02-25 21:31:25,15.08847642,0.0001105,53.2175,276.8474,84.5631,275.5487,-8.7903e-05,-1.687e-05,0.0,0 STARLINK-5259,1 54209U 22141BE  23056.89682658 -.00001687  00000-0 -87903-4 0  9993,2 54209  53.2175 276.8474 0001105  84.5631 275.5487 15.08847642 18908,6917.857,95.437,540.486,538.958,0.0
54209.0,STARLINK-5259,PAYLOAD,2023-02-26 02:17:34,15.08850109,0.0001138,53.2178,275.9549,87.7036,272.4086,-3.1258e-05,-7.85e-06,0.0,0 STARLINK-5259,1 54209U 22141BE  23057.09554214 -.00000785  00000-0 -31258-4 0  9992,2 54209  53.2178 275.9549 0001138  87.7036 272.4086 15.08850109 19166,6917.849,95.437,540.502,538.927,0.0
54209.0,STARLINK-5259,PAYLOAD,2023-02-26 16:36:03,15.08838704,0.00011,53.2171,273.2786,81.6243,278.4874,8.913e-05,1.131e-05,0.0,0 STARLINK-5259,1 54209U 22141BE  23057.69170486  .00001131  00000-0  89130-4 0  9999,2 54209  53.2171 273.2786 0001100  81.6243 278.4874 15.08838704 19253,6917.884,95.438,540.51,538.988,0.0
54209.0,STARLINK-5259,PAYLOAD,2023-02-26 21:22:12,15.08846175,0.0001111,53.2174,272.3867,81.8715,278.2404,0.00013154,1.807e-05,0.0,0 STARLINK-5259,1 54209U 22141BE  23057.89041843  .00001807  00000-0  13154-3 0  9997,2 54209  53.2174 272.3867 0001111  81.8715 278.2404 15.08846175 19050,6917.862,95.437,540.495,538.958,0.0
54209.0,STARLINK-5259,PAYLOAD,2023-02-27 00:32:58,15.08848678,0.0001139,53.2175,271.7919,83.2179,276.8942,0.00016215,2.294e-05,0.0,0 STARLINK-5259,1 54209U 22141BE  23058.02289545  .00002294  00000-0  16215-3 0  9998,2 54209  53.2175 271.7919 0001139  83.2179 276.8942 15.08848678 19301,6917.854,95.437,540.507,538.931,0.0
54209.0,STARLINK-5259,PAYLOAD,2023-02-27 16:26:50,15.08841314,0.0001057,53.2175,268.8186,97.9539,262.1573,1.565e-05,-3.9e-07,0.0,0 STARLINK-5259,1 54209U 22141BE  23058.68530514 -.00000039  00000-0  15650-4 0  9994,2 54209  53.2175 268.8186 0001057  97.9539 262.1573 15.08841314 19404,6917.876,95.437,540.473,539.01,0.0
54209.0,STARLINK-5259,PAYLOAD,2023-02-27 19:37:36,15.08843651,0.0001505,53.219,268.2264,83.6334,276.4829,4.0188e-05,3.52e-06,0.0,0 STARLINK-5259,1 54209U 22141BE  23058.81778464  .00000352  00000-0  40188-4 0  9998,2 54209  53.2190 268.2264 0001505  83.6334 276.4829 15.08843651 19199,6917.869,95.437,540.775,538.693,0.0
54209.0,STARLINK-5259,PAYLOAD,2023-02-28 00:23:44,15.08853957,0.0001229,53.2175,267.332,86.1283,273.985,0.00011652,1.568e-05,0.0,0 STARLINK-5259,1 54209U 22141BE  23059.01649292  .00001568  00000-0  11652-3 0  9990,2 54209  53.2175 267.3320 0001229  86.1283 273.9850 15.08853957 19454,6917.838,95.437,540.553,538.853,0.0
54209.0,STARLINK-5259,PAYLOAD,2023-02-28 13:06:52,15.08824572,0.0001282,53.2171,264.9518,88.98,271.1339,-0.00011617,-2.135e-05,0.0,0 STARLINK-5259,1 54209U 22141BE  23059.54644015 -.00002135  00000-0 -11617-3 0  9990,2 54209  53.2171 264.9518 0001282  88.9800 271.1339 15.08824572 19303,6917.928,95.439,540.679,538.906,0.0
54209.0,STARLINK-5259,PAYLOAD,2023-02-28 17:53:02,15.08824735,0.0001136,53.217,264.0584,93.683,266.4292,-0.0002119,-3.657e-05,0.0,0 STARLINK-5259,1 54209U 22141BE  23059.74516491 -.00003657  00000-0 -21190-3 0  9995,2 54209  53.2170 264.0584 0001136  93.6830 266.4292 15.08824735 19564,6917.927,95.439,540.578,539.006,0.0
54209.0,STARLINK-5259,PAYLOAD,2023-02-28 21:03:48,15.08823387,9.92e-05,53.2172,263.4645,77.0593,283.051,-0.00021085,-3.64e-05,0.0,0 STARLINK-5259,1 54209U 22141BE  23059.87764739 -.00003640  00000-0 -21085-3 0  9994,2 54209  53.2172 263.4645 0000992  77.0593 283.0510 15.08823387 19355,6917.931,95.439,540.482,539.11,0.0
54209.0,STARLINK-5259,PAYLOAD,2023-03-01 19:19:12,15.08835084,8.85e-05,53.2171,259.3003,92.2625,267.8469,-8.1194e-05,-1.579e-05,0.0,0 STARLINK-5259,1 54209U 22141BE  23060.80500439 -.00001579  00000-0 -81194-4 0  9991,2 54209  53.2171 259.3003 0000885  92.2625 267.8469 15.08835084 19723,6917.895,95.438,540.373,539.148,0.0
54209.0,STARLINK-5259,PAYLOAD,2023-03-01 20:54:35,15.08837161,0.0001023,53.2172,259.0035,83.9596,276.1513,-4.547e-05,-1.011e-05,0.0,0 STARLINK-5259,1 54209U 22141BE  23060.87124272 -.00001011  00000-0 -45470-4 0  9993,2 54209  53.2172 259.0035 0001023  83.9596 276.1513 15.08837161 19502,6917.889,95.438,540.462,539.046,0.0
54209.0,STARLINK-5259,PAYLOAD,2023-03-02 01:40:44,15.08842145,9.66e-05,53.217,258.1117,83.3842,276.726,-2.6996e-05,-7.17e-06,0.0,0 STARLINK-5259,1 54209U 22141BE  23061.06995941 -.00000717  00000-0 -26996-4 0  9998,2 54209  53.2170 258.1117 0000966  83.3842 276.7260 15.08842145 19765,6917.874,95.437,540.407,539.071,0.0
54209.0,STARLINK-5259,PAYLOAD,2023-03-02 19:09:58,15.0883952,0.000107,53.2173,254.8409,64.7756,295.3347,0.00029974,4.486e-05,0.0,0 STARLINK-5259,1 54209U 22141BE  23061.79859457  .00004486  00000-0  29974-3 0  9992,2 54209  53.2173 254.8409 0001070  64.7756 295.3347 15.08839520 19642,6917.882,95.438,540.487,539.007,0.0
54209.0,STARLINK-5259,PAYLOAD,2023-03-02 22:20:44,15.08845126,0.0001065,53.2173,254.2456,68.9716,291.1389,0.00033818,5.099e-05,0.0,0 STARLINK-5259,1 54209U 22141BE  23061.93107049  .00005099  00000-0  33818-3 0  9994,2 54209  53.2173 254.2456 0001065  68.9716 291.1389 15.08845126 19890,6917.865,95.437,540.466,538.993,0.0
